[{"CCSDS_OMM_VERS":"2.0","COMMENT":"GENERATED VIA SPACE-TRACK.ORG API","CREATION_DATE":"2021-10-03T14:46:13","ORIGINATOR":"18 SPCS","OBJECT_NAME":"ONEWEB-0350","OBJECT_ID":"2021-083AE","CENTER_NAME":"EARTH","REF_FRAME":"TEME","TIME_SYSTEM":"UTC","MEAN_ELEMENT_THEORY":"SGP4","EPOCH":"2021-10-03T14:00:01.000224","MEAN_MOTION":"15.17763049","ECCENTRICITY":"0.00152450","INCLINATION":"87.3175","RA_OF_ASC_NODE":"321.5860","ARG_OF_PERICENTER":"233.9257","MEAN_ANOMALY":"263.1264","EPHEMERIS_TYPE":"0","CLASSIFICATION_TYPE":"U","NORAD_CAT_ID":"49214","ELEMENT_SET_NO":"999","REV_AT_EPOCH":"417","BSTAR":"-0.05583000000000","MEAN_MOTION_DOT":"-0.01036992","MEAN_MOTION_DDOT":"0.0000000000000","SEMIMAJOR_AXIS":"6890.740","PERIOD":"94.876","APOAPSIS":"523.110","PERIAPSIS":"502.100","OBJECT_TYPE":"PAYLOAD","RCS_SIZE":"LARGE","COUNTRY_CODE":"UK","LAUNCH_DATE":"2021-09-14","SITE":"TTMTR","DECAY_DATE":null,"FILE":"3142321","GP_ID":"186075008","TLE_LINE0":"0 ONEWEB-0350","TLE_LINE1":"1 49214U 21083AE  21276.58334491 -.01036992  00000-0 -55830-1 0  9993","TLE_LINE2":"2 49214  87.3175 321.5860 0015245 233.9257 263.1264 15.17763049  4175"},{"CCSDS_OMM_VERS":"2.0","COMMENT":"GENERATED VIA SPACE-TRACK.ORG API","CREATION_DATE":"2021-10-03T06:56:12","ORIGINATOR":"18 SPCS","OBJECT_NAME":"ONEWEB-0348","OBJECT_ID":"2021-083AD","CENTER_NAME":"EARTH","REF_FRAME":"TEME","TIME_SYSTEM":"UTC","MEAN_ELEMENT_THEORY":"SGP4","EPOCH":"2021-10-03T06:00:00.999648","MEAN_MOTION":"15.21260196","ECCENTRICITY":"0.00194700","INCLINATION":"87.3275","RA_OF_ASC_NODE":"321.6951","ARG_OF_PERICENTER":"229.1412","MEAN_ANOMALY":"16.9677","EPHEMERIS_TYPE":"0","CLASSIFICATION_TYPE":"U","NORAD_CAT_ID":"49213","ELEMENT_SET_NO":"999","REV_AT_EPOCH":"412","BSTAR":"-0.05401600000000","MEAN_MOTION_DOT":"-0.01107532","MEAN_MOTION_DDOT":"0.0000000000000","SEMIMAJOR_AXIS":"6880.175","PERIOD":"94.658","APOAPSIS":"515.436","PERIAPSIS":"488.645","OBJECT_TYPE":"PAYLOAD","RCS_SIZE":"LARGE","COUNTRY_CODE":"UK","LAUNCH_DATE":"2021-09-14","SITE":"TTMTR","DECAY_DATE":null,"FILE":"3141791","GP_ID":"186064951","TLE_LINE0":"0 ONEWEB-0348","TLE_LINE1":"1 49213U 21083AD  21276.25001157 -.01107532  00000-0 -54016-1 0  9990","TLE_LINE2":"2 49213  87.3275 321.6951 0019470 229.1412  16.9677 15.21260196  4128"},{"CCSDS_OMM_VERS":"2.0","COMMENT":"GENERATED VIA SPACE-TRACK.ORG API","CREATION_DATE":"2021-10-02T22:46:12","ORIGINATOR":"18 SPCS","OBJECT_NAME":"ONEWEB-0346","OBJECT_ID":"2021-083AC","CENTER_NAME":"EARTH","REF_FRAME":"TEME","TIME_SYSTEM":"UTC","MEAN_ELEMENT_THEORY":"SGP4","EPOCH":"2021-10-02T22:00:00.999936","MEAN_MOTION":"15.19116182","ECCENTRICITY":"0.00176190","INCLINATION":"87.4267","RA_OF_ASC_NODE":"321.9123","ARG_OF_PERICENTER":"241.5198","MEAN_ANOMALY":"22.5220","EPHEMERIS_TYPE":"0","CLASSIFICATION_TYPE":"U","NORAD_CAT_ID":"49212","ELEMENT_SET_NO":"999","REV_AT_EPOCH":"405","BSTAR":"-0.05699000000000","MEAN_MOTION_DOT":"-0.01096988","MEAN_MOTION_DDOT":"0.0000000000000","SEMIMAJOR_AXIS":"6886.647","PERIOD":"94.792","APOAPSIS":"520.646","PERIAPSIS":"496.379","OBJECT_TYPE":"PAYLOAD","RCS_SIZE":"LARGE","COUNTRY_CODE":"UK","LAUNCH_DATE":"2021-09-14","SITE":"TTMTR","DECAY_DATE":null,"FILE":"3141173","GP_ID":"186027628","TLE_LINE0":"0 ONEWEB-0346","TLE_LINE1":"1 49212U 21083AC  21275.91667824 -.01096988  00000-0 -56990-1 0  9995","TLE_LINE2":"2 49212  87.4267 321.9123 0017619 241.5198  22.5220 15.19116182  4056"},{"CCSDS_OMM_VERS":"2.0","COMMENT":"GENERATED VIA SPACE-TRACK.ORG API","CREATION_DATE":"2021-10-03T14:46:13","ORIGINATOR":"18 SPCS","OBJECT_NAME":"ONEWEB-0345","OBJECT_ID":"2021-083AB","CENTER_NAME":"EARTH","REF_FRAME":"TEME","TIME_SYSTEM":"UTC","MEAN_ELEMENT_THEORY":"SGP4","EPOCH":"2021-10-03T14:00:01.000224","MEAN_MOTION":"15.16670899","ECCENTRICITY":"0.00176060","INCLINATION":"87.3150","RA_OF_ASC_NODE":"321.5916","ARG_OF_PERICENTER":"226.2254","MEAN_ANOMALY":"209.9520","EPHEMERIS_TYPE":"0","CLASSIFICATION_TYPE":"U","NORAD_CAT_ID":"49211","ELEMENT_SET_NO":"999","REV_AT_EPOCH":"416","BSTAR":"-0.05696400000000","MEAN_MOTION_DOT":"-0.01027521","MEAN_MOTION_DDOT":"0.0000000000000","SEMIMAJOR_AXIS":"6894.048","PERIOD":"94.945","APOAPSIS":"528.050","PERIAPSIS":"503.775","OBJECT_TYPE":"PAYLOAD","RCS_SIZE":"LARGE","COUNTRY_CODE":"UK","LAUNCH_DATE":"2021-09-14","SITE":"TTMTR","DECAY_DATE":null,"FILE":"3142316","GP_ID":"186076482","TLE_LINE0":"0 ONEWEB-0345","TLE_LINE1":"1 49211U 21083AB  21276.58334491 -.01027521  00000-0 -56964-1 0  9997","TLE_LINE2":"2 49211  87.3150 321.5916 0017606 226.2254 209.9520 15.16670899  4163"},{"CCSDS_OMM_VERS":"2.0","COMMENT":"GENERATED VIA SPACE-TRACK.ORG API","CREATION_DATE":"2021-10-03T06:56:12","ORIGINATOR":"18 SPCS","OBJECT_NAME":"ONEWEB-0344","OBJECT_ID":"2021-083AA","CENTER_NAME":"EARTH","REF_FRAME":"TEME","TIME_SYSTEM":"UTC","MEAN_ELEMENT_THEORY":"SGP4","EPOCH":"2021-10-03T06:00:00.999648","MEAN_MOTION":"15.17137663","ECCENTRICITY":"0.00184590","INCLINATION":"87.3152","RA_OF_ASC_NODE":"321.7080","ARG_OF_PERICENTER":"228.0856","MEAN_ANOMALY":"173.9927","EPHEMERIS_TYPE":"0","CLASSIFICATION_TYPE":"U","NORAD_CAT_ID":"49210","ELEMENT_SET_NO":"999","REV_AT_EPOCH":"411","BSTAR":"-0.06162600000000","MEAN_MOTION_DOT":"-0.01133146","MEAN_MOTION_DDOT":"0.0000000000000","SEMIMAJOR_AXIS":"6892.633","PERIOD":"94.916","APOAPSIS":"527.222","PERIAPSIS":"501.775","OBJECT_TYPE":"PAYLOAD","RCS_SIZE":"LARGE","COUNTRY_CODE":"UK","LAUNCH_DATE":"2021-09-14","SITE":"TTMTR","DECAY_DATE":null,"FILE":"3141787","GP_ID":"186064773","TLE_LINE0":"0 ONEWEB-0344","TLE_LINE1":"1 49210U 21083AA  21276.25001157 -.01133146  00000-0 -61626-1 0  9992","TLE_LINE2":"2 49210  87.3152 321.7080 0018459 228.0856 173.9927 15.17137663  4117"},{"CCSDS_OMM_VERS":"2.0","COMMENT":"GENERATED VIA SPACE-TRACK.ORG API","CREATION_DATE":"2021-10-02T22:46:12","ORIGINATOR":"18 SPCS","OBJECT_NAME":"ONEWEB-0343","OBJECT_ID":"2021-083Z","CENTER_NAME":"EARTH","REF_FRAME":"TEME","TIME_SYSTEM":"UTC","MEAN_ELEMENT_THEORY":"SGP4","EPOCH":"2021-10-02T22:00:00.999936","MEAN_MOTION":"15.21065215","ECCENTRICITY":"0.00198230","INCLINATION":"87.4397","RA_OF_ASC_NODE":"321.9168","ARG_OF_PERICENTER":"235.9252","MEAN_ANOMALY":"108.1334","EPHEMERIS_TYPE":"0","CLASSIFICATION_TYPE":"U","NORAD_CAT_ID":"49209","ELEMENT_SET_NO":"999","REV_AT_EPOCH":"405","BSTAR":"-0.05386700000000","MEAN_MOTION_DOT":"-0.01099167","MEAN_MOTION_DDOT":"0.0000000000000","SEMIMAJOR_AXIS":"6880.763","PERIOD":"94.670","APOAPSIS":"516.268","PERIAPSIS":"488.989","OBJECT_TYPE":"PAYLOAD","RCS_SIZE":"LARGE","COUNTRY_CODE":"UK","LAUNCH_DATE":"2021-09-14","SITE":"TTMTR","DECAY_DATE":null,"FILE":"3141153","GP_ID":"186027280","TLE_LINE0":"0 ONEWEB-0343","TLE_LINE1":"1 49209U 21083Z   21275.91667824 -.01099167  00000-0 -53867-1 0  9993","TLE_LINE2":"2 49209  87.4397 321.9168 0019823 235.9252 108.1334 15.21065215  4052"},{"CCSDS_OMM_VERS":"2.0","COMMENT":"GENERATED VIA SPACE-TRACK.ORG API","CREATION_DATE":"2021-10-03T14:46:13","ORIGINATOR":"18 SPCS","OBJECT_NAME":"ONEWEB-0342","OBJECT_ID":"2021-083Y","CENTER_NAME":"EARTH","REF_FRAME":"TEME","TIME_SYSTEM":"UTC","MEAN_ELEMENT_THEORY":"SGP4","EPOCH":"2021-10-03T14:00:01.000224","MEAN_MOTION":"15.20880317","ECCENTRICITY":"0.00193670","INCLINATION":"87.3238","RA_OF_ASC_NODE":"321.5694","ARG_OF_PERICENTER":"224.5322","MEAN_ANOMALY":"70.1836","EPHEMERIS_TYPE":"0","CLASSIFICATION_TYPE":"U","NORAD_CAT_ID":"49208","ELEMENT_SET_NO":"999","REV_AT_EPOCH":"417","BSTAR":"-0.04953200000000","MEAN_MOTION_DOT":"-0.01012027","MEAN_MOTION_DDOT":"0.0000000000000","SEMIMAJOR_AXIS":"6881.321","PERIOD":"94.682","APOAPSIS":"516.513","PERIAPSIS":"489.859","OBJECT_TYPE":"PAYLOAD","RCS_SIZE":"LARGE","COUNTRY_CODE":"UK","LAUNCH_DATE":"2021-09-14","SITE":"TTMTR","DECAY_DATE":null,"FILE":"3142314","GP_ID":"186074886","TLE_LINE0":"0 ONEWEB-0342","TLE_LINE1":"1 49208U 21083Y   21276.58334491 -.01012027  00000-0 -49532-1 0  9991","TLE_LINE2":"2 49208  87.3238 321.5694 0019367 224.5322  70.1836 15.20880317  4174"},{"CCSDS_OMM_VERS":"2.0","COMMENT":"GENERATED VIA SPACE-TRACK.ORG API","CREATION_DATE":"2021-10-03T14:46:13","ORIGINATOR":"18 SPCS","OBJECT_NAME":"ONEWEB-0341","OBJECT_ID":"2021-083X","CENTER_NAME":"EARTH","REF_FRAME":"TEME","TIME_SYSTEM":"UTC","MEAN_ELEMENT_THEORY":"SGP4","EPOCH":"2021-10-03T14:00:01.000224","MEAN_MOTION":"15.18097852","ECCENTRICITY":"0.00183760","INCLINATION":"87.4292","RA_OF_ASC_NODE":"321.6795","ARG_OF_PERICENTER":"238.5792","MEAN_ANOMALY":"95.2556","EPHEMERIS_TYPE":"0","CLASSIFICATION_TYPE":"U","NORAD_CAT_ID":"49207","ELEMENT_SET_NO":"999","REV_AT_EPOCH":"415","BSTAR":"-0.05760900000000","MEAN_MOTION_DOT":"-0.01078744","MEAN_MOTION_DDOT":"0.0000000000000","SEMIMAJOR_AXIS":"6889.727","PERIOD":"94.856","APOAPSIS":"524.252","PERIAPSIS":"498.931","OBJECT_TYPE":"PAYLOAD","RCS_SIZE":"LARGE","COUNTRY_CODE":"UK","LAUNCH_DATE":"2021-09-14","SITE":"TTMTR","DECAY_DATE":null,"FILE":"3142312","GP_ID":"186076414","TLE_LINE0":"0 ONEWEB-0341","TLE_LINE1":"1 49207U 21083X   21276.58334491 -.01078744  00000-0 -57609-1 0  9992","TLE_LINE2":"2 49207  87.4292 321.6795 0018376 238.5792  95.2556 15.18097852  4158"}]